#dP2026  1 16  0  0  0.00000000     289   u+U IGS20 FIT  WHU
## 2401 432000.00000000   300.00000000 61056 0.0000000000000
+  115   G01G02G03G04G05G06G07G08G09G10G11G12G13G14G15G16G17
+        G18G19G21G22G23G24G25G26G27G28G29G30G31G32R02R03R04
+        R05R06R07R08R09R11R12R14R15R16R17R18R19R20R21R22E02
+        E03E04E05E06E07E08E09E10E11E12E13E15E19E21E23E25E26
+        E27E29E30E31E33E34E36C06C07C08C09C10C11C12C13C14C16
+        C19C20C21C22C23C24C25C26C27C28C29C30C32C33C34C35C36
+        C37C38C39C40C41C42C43C44C45C47C48C49C50  0  0  0  0
++         5  4  2  6  4  3  4  4  4  4  4  5  4  3  4  3  3
++         5  4  3  3  5  3  3  3  4  4  4  4  3  3  5  5  6
++         5  6  5  5  4  5  4  5  6  7  5  4  4  5  5  5  4
++         6  6  6  6  6  6  6  4  3  4  4  4  6  4  3  4  3
++         4  5  4  2  3  4  4  7  6  7  7  6  7  6  7  7  7
++         5  4  3  4  4  5  4  5  6  5  5  6  6  6  6  5  5
++         5  6  5  7  5  3  4  5  3  5  6  4  5  0  0  0  0
%c M  cc GPS ccc cccc cccc cccc cccc ccccc ccccc ccccc ccccc
%c cc cc ccc ccc cccc cccc cccc cccc ccccc ccccc ccccc ccccc
%f  1.2500000  1.025000000  0.00000000000  0.000000000000000
%f  0.0000000  0.000000000  0.00000000000  0.000000000000000
%i    0    0    0    0      0      0      0      0         0
%i    0    0    0    0      0      0      0      0         0
/* PCV:igs20_2401 OL/AL:FES2014b NONE     YN ORB:CoN CLK:CoN
*  2026  1 16 11 25  0.00000000
PG01 -20081.545421 -11230.514531  13326.159663    346.941083
PG02 -20567.567432 -17103.291892   2791.552854     21.365683
PG03 -14381.352330  -2435.619903  22000.810231    600.567725
PG04 -25136.995226  -2048.907698   8638.885123     42.056204
PG05   7138.909231  18421.775745 -17903.920120   -223.818263
PG06   -814.864998  18605.408703  18947.026623   -599.390194
PG07 -16341.556136   3190.926894 -20184.679012   -132.466442
PG08 -18530.173644  -8475.344666 -17461.990641    507.188603
PG09 -25724.468062   6666.794304  -1317.330609    773.862594
PG10  10789.680524 -23793.627960  -3354.593607   -579.355424
PG11  11382.813241  22806.004423   7652.205731   -468.761591
PG12  13079.289979   7770.781559  21477.116690   -603.048957
PG13  11176.354582  13318.946824 -20419.967504    693.063127
PG14 -12808.800436  22225.337412  -6188.595416    732.666849
PG15  19325.798227   6385.225891 -17640.009230    380.702058
PG16  -2707.095097 -21263.332870 -15781.833224    192.508904
PG17 -16771.398078  13600.525580  16012.108370    -30.681944
PG18  14837.896158  -5041.575490 -21429.780436   -446.045017
PG19  -8413.047172  14913.090865  20084.867438    689.371352
PG21   -853.163225  24223.625345 -10826.500242    384.942845
PG22 -10427.328233  24614.570629    764.202443    -54.616481
PG23  15515.829668 -14558.924742 -15651.249456    603.699281
PG24  21698.015424  14389.100076   5618.200030   -157.208777
PG25  16595.660866  -6910.200425  19083.655395    453.195980
PG26   3195.178643 -25895.989842  -3844.778096   -308.615813
PG27  -8068.475198 -13919.737143 -21540.341468    -16.215314
PG28   1850.613082 -18003.148197  19430.031819   -606.936928
PG29  26475.401253  -2949.369081    318.328798   -388.526489
PG30  -9086.406090  13097.477430 -21034.296690     93.134736
PG31  -7476.194789 -22204.399859  11923.856983   -168.779386
PG32  13819.814901 -14943.397132  17224.525717   -157.135307
PR02    498.999351 -12023.077212  22530.537463     12.607878
PR03 -16835.415278   -805.773795  19223.895359    136.952244
PR04 -23030.292598   9588.341971   5406.940084    332.405034
PR05 -17266.672002  15035.463495 -11258.612919    162.120704
PR06  -1659.232213  12693.280620 -22059.016473     22.868327
PR07  16534.665625   1046.654135 -19327.939084    117.416673
PR08  22875.388264 -10069.333167  -4921.461422     -2.487646
PR09   3630.615426  24470.612495   6047.280758    302.388653
PR11  10789.665379  -4834.064728  22609.640933     11.689068
PR12   5913.621955 -21829.972148  11802.795051     64.134593
PR14  -9566.083127 -13180.494149 -19635.789077     31.107946
PR15 -10825.847890   5881.742922 -22322.838057     60.113348
PR16  -5804.508589  21861.995070 -11752.046279     44.102467
PR17 -22093.769681 -12645.185538   1269.688072    262.174011
PR18 -19503.009808  -3481.199683  16117.650486    242.507021
PR19  -6269.857774   9080.631964  22994.460411     29.673223
PR20  10674.835106  16270.811985  16489.421672    227.907813
PR21  21217.210176  14074.798525   1753.496530   -272.736187
PR22  18806.752247   2386.543178 -17031.860128    106.043111
PE02  16774.939176 -23945.081911   4542.116874     14.332610
PE03  19405.840222 -13095.971961  18114.211650      9.551799
PE04   2396.187259  16691.961232 -24321.624828    -40.078272
PE05  29511.435760  -1872.443539   1376.490338      9.109784
PE06  13508.346363  14820.377813 -21783.870881   -216.625001
PE07 -22293.951677 -10572.382005  16345.901273    -35.647082
PE08  -2023.085196 -16578.974610  24434.729782    -70.895934
PE09  22281.262716  10530.041840 -16408.283542   -171.852988
PE10  14465.568091  25773.354536   1626.800222   -761.438099
PE11  19234.256904  20685.133788  -8823.232631   3619.728840
PE12   8176.322203  26473.487128  10386.376573    -15.599078
PE13 -19067.827281 -21050.538466   8373.220512    -43.021703
PE15  -7704.391937 -26378.782953 -11005.286817   -225.294080
PE19 -20436.781022  12383.139226 -17462.039882   2643.776540
PE21 -20263.018551   7834.632712 -20116.291968   -711.743309
PE23 -16630.104342  24056.417550  -4578.167707    -18.615910
PE25  20174.583310  -7264.320735  20396.633306     25.391988
PE26 -19103.431822  -3210.540630  22396.689258    196.408170
PE27 -11696.254930 -13206.254369 -23774.487649   -877.883853
PE29 -29499.381214   1979.572539  -1540.091947   -166.148225
PE30   3178.625642 -25978.857235 -13829.347334   -629.097591
PE31  -3669.336411  26171.973126  13338.587304   -109.135003
PE33  -8187.053149  15851.822879  23630.369379      1.824483
PE34   7979.236637 -16062.478703 -23541.428445   -226.492049
PE36  19031.269778   3603.843748 -22367.480387   -506.287724
PC06  -1500.541515  32642.789589 -26317.445591     36.652777
PC07 -15614.711443  28607.121681  26764.655228    465.972438
PC08 -14826.322682  39265.884955  -5311.061433   -640.026929
PC09   5221.907414  36428.544248 -19297.759454    228.095672
PC10  -5648.551311  29262.169391  30082.387499   -403.224132
PC11 -26421.431742  -6588.828864   6213.627524    832.369474
PC12 -19392.498197 -16373.186576 -11582.994094    196.975072
PC13  -9649.311045  39685.144804 -10834.564479   -278.166435
PC14 -22255.925735   4185.730885  16273.416081   -301.765287
PC16  -2166.166105  31622.125252 -27179.585505   -859.898545
PC19  23735.262811 -11972.924877  -8516.688458   -960.263646
PC20  18517.645835   2621.463895 -20715.128714   -950.563307
PC21  -1123.063067 -17535.371638  21699.731952   -886.945190
PC22  15885.592564 -20898.749627   9501.831078    434.334029
PC23  -6592.126231  23057.157180 -14285.880430   -504.797065
PC24 -15247.440023 -16016.131101 -17034.742873     -0.972190
PC25 -15202.544870   6742.934643 -22430.667314    968.774021
PC26  -7319.082301 -26752.300542  -2940.405559   -579.085265
PC27  10093.144402  18041.097412  18723.080197    586.054437
PC28  -6704.110472  14793.344472  22698.722367    475.412095
PC29  24835.569327  -1402.276911 -12649.271884    554.252500
PC30  25278.380530  11163.448472   3789.313122    369.306124
PC32   1197.806124  17554.541728 -21640.375978   -958.827175
PC33 -23644.225353  12031.469475   8628.319525   -948.839267
PC34 -25287.435747 -11205.289968  -3809.886809    867.390836
PC35   7940.713265 -14457.987364 -22524.442679   -230.893819
PC36  15435.335192  -6044.679223  22456.654578    308.719558
PC37   5879.673069  27244.147702   1696.149429   -905.604451
PC38 -18290.571828  37821.809510   4370.831030    272.281901
PC39  -7158.597927  26913.108049 -31512.702716    -14.820909
PC40 -21380.558100  21912.637598  28886.361357   -196.809302
PC41 -16687.363926  20736.033421  -8282.296788   -942.089856
PC42 -16956.533860  -4733.573342  21683.288425   -914.123278
PC43 -24246.685199   2472.156485  13600.503169    133.134261
PC44 -10738.678743 -17745.064456 -18701.895876    903.293621
PC45   7112.644650 -22502.430046  14856.361882   -645.155623
PC47  26660.732650   4974.210010  -6533.289432   -440.534840
PC48  22098.154542  -3505.718290 -16668.290633    696.644107
PC49 -17357.399748   8720.811757  20033.884309   -604.368103
PC50  -9821.609119 -12327.579167  23033.836505   -431.382992
EOF
